COMMENT,ORIGINATOR,NORAD_CAT_ID,OBJECT_NAME,OBJECT_TYPE,CLASSIFICATION_TYPE,INTLDES,EPOCH,EPOCH_MICROSECONDS,MEAN_MOTION,ECCENTRICITY,INCLINATION,RA_OF_ASC_NODE,ARG_OF_PERICENTER,MEAN_ANOMALY,EPHEMERIS_TYPE,ELEMENT_SET_NO,REV_AT_EPOCH,BSTAR,MEAN_MOTION_DOT,MEAN_MOTION_DDOT,FILE,TLE_LINE0,TLE_LINE1,TLE_LINE2,OBJECT_ID,OBJECT_NUMBER,SEMIMAJOR_AXIS,PERIOD,APOGEE,PERIGEE
"GENERATED VIA SPACETRACK.ORG API","JSPOC","22245","GORIZONT 27","PAYLOAD","U","92082A","2016-01-09 14:54:42","327936","1.00186846","0.0013516","14.7274","18.0806","274.848","166.7846","0","999","8893","0","-3.6e-06","0","1978726","0 GORIZONT 27","1 22245U 92082A   16009.62132324 -.00000360 +00000-0 +00000-0 0  9995","2 22245 014.7274 018.0806 0013516 274.8480 166.7846 01.00186846088934","1992-082A","22245","42188.560","1437.314","35867.447","35753.403"
"GENERATED VIA SPACETRACK.ORG API","JSPOC","3271","THOR BURNER 2 R/B","ROCKET BODY","U","68042B","2016-01-09 14:54:45","396000","14.16590037","0.0051654","98.8881","226.2594","328.9114","30.9007","0","999","45706","4.7985e-05","5.2e-07","0","1978726","0 THOR BURNER 2 R/B","1  3271U 68042B   16009.62135875 +.00000052 +00000-0 +47985-4 0  9990","2  3271 098.8881 226.2594 0051654 328.9114 030.9007 14.16590037457063","1968-042B","3271","7215.045","101.652","874.178","799.641"
"GENERATED VIA SPACETRACK.ORG API","JSPOC","39198","PEGASUS R/B","ROCKET BODY","U","13033B","2016-01-09 14:55:32","564352","14.79115791","0.0024345","97.9131","196.2783","65.7604","294.6147","0","999","13671","5.0784e-05","3.26e-06","0","1978306","0 PEGASUS R/B","1 39198U 13033B   16009.62190468  .00000326  00000-0  50784-4 0  9991","2 39198  97.9131 196.2783 0024345  65.7604 294.6147 14.79115791136710","2013-033B","39198","7010.253","97.355","649.185","615.052"
"GENERATED VIA SPACETRACK.ORG API","JSPOC","6659","METEOR 1-15","PAYLOAD","U","73034A","2016-01-09 14:55:41","129184","14.09835726","0.0027851","81.1889","19.2451","18.6875","341.5311","0","999","19053","0.00011366","2.13e-06","0","1978244","0 METEOR 1-15","1 06659U 73034A   16009.62200381  .00000213  00000-0  11366-3 0  9997","2 06659  81.1889  19.2451 0027851  18.6875 341.5311 14.09835726190534","1973-034A","6659","7238.070","102.139","880.094","839.777"
"GENERATED VIA SPACETRACK.ORG API","JSPOC","38954","CZ-3C R/B","ROCKET BODY","U","12059B","2016-01-09 14:55:49","858176","2.90116007","0.6822046","20.0921","72.2575","100.3408","336.8641","0","999","3078","0.00088411","8.593e-05","0","1978315","0 CZ-3C R/B","1 38954U 12059B   16009.62210484  .00008593  00000-0  88411-3 0  9999","2 38954  20.0921  72.2575 6822046 100.3408 336.8641  2.90116007 30782","2012-059B","38954","20766.057","496.353","28554.622","221.222"
"GENERATED VIA SPACETRACK.ORG API","JSPOC","14786","INTELSAT 508","PAYLOAD","U","84023A","2016-01-09 14:56:03","372864","0.97291924","0.0017291","15.8958","10.1294","135.634","224.5597","0","999","887","0","-9.1e-07","0","1978726","0 INTELSAT 508","1 14786U 84023A   16009.62226126 -.00000091 +00000-0 +00000-0 0  9997","2 14786 015.8958 010.1294 0017291 135.6340 224.5597 00.97291924008873","1984-023A","14786","43021.344","1480.081","36717.597","36568.821"
"GENERATED VIA SPACETRACK.ORG API","JSPOC","28115","BREEZE-M R/B","ROCKET BODY","U","03056D","2016-01-09 14:56:40","485120","2.13128315","0.0055669","63.2025","197.1168","92.7308","114.8617","0","999","9404","0","1.02e-06","0","1978267","0 BREEZE-M R/B","1 28115U 03056D   16009.62269080  .00000102  00000-0  00000+0 0  9992","2 28115  63.2025 197.1168 0055669  92.7308 114.8617  2.13128315 94041","2003-056D","28115","25505.924","675.649","19269.778","18985.800"
"GENERATED VIA SPACETRACK.ORG API","JSPOC","25667","ARIANE 42P R/B","ROCKET BODY","U","99016B","2016-01-09 14:56:41","706816","3.88916482","0.6080784","4.3091","256.0192","296.4653","14.6288","0","999","18732","0.00042812","1.314e-05","0","1978218","0 ARIANE 42P R/B","1 25667U 99016B   16009.62270494  .00001314  00000-0  42812-3 0  9990","2 25667   4.3091 256.0192 6080784 296.4653  14.6288  3.88916482187327","1999-016B","25667","17080.383","370.259","21088.460","316.036"
"GENERATED VIA SPACETRACK.ORG API","JSPOC","741","THOR AGENA B R/B","ROCKET BODY","U","64004B","2016-01-09 14:56:42","183744","13.2361436","0.0170809","81.4895","36.8719","269.0694","211.771","0","999","50879","-1.6643e-05","1e-08","0","1978726","0 THOR AGENA B R/B","1   741U 64004B   16009.62271046 +.00000001 +00000-0 -16643-4 0  9996","2   741 081.4895 036.8719 0170809 269.0694 211.7710 13.23614360508791","1964-004B","741","7549.082","108.793","1299.893","1042.002"
"GENERATED VIA SPACETRACK.ORG API","JSPOC","9486","COSMOS 860","PAYLOAD","U","76103A","2016-01-09 14:57:17","2944","13.81241745","0.0049342","64.7014","69.163","157.5661","4.4691","0","999","35647","2.7288e-05","-6.1e-07","0","1978726","0 COSMOS 860","1  9486U 76103A   16009.62311346 -.00000061 +00000-0 +27288-4 0  9995","2  9486 064.7014 069.1630 0049342 157.5661 004.4691 13.81241745356474","1976-103A","9486","7337.622","104.254","995.693","923.282"
"GENERATED VIA SPACETRACK.ORG API","JSPOC","40426","FALCON 9 R/B","ROCKET BODY","U","15010C","2016-01-09 14:57:28","97568","1.16234486","0.8230637","25.8204","357.3479","259.6233","10.3574","0","999","364","0.00099325","-1.21e-06","0","1978691","0 FALCON 9 R/B","1 40426U 15010C   16009.62324187 -.00000121  00000-0  99325-3 0  9998","2 40426  25.8204 357.3479 8230637 259.6233  10.3574  1.16234486  3644","2015-010C","40426","38210.129","1238.875","63281.364","382.623"
"GENERATED VIA SPACETRACK.ORG API","JSPOC","40426","FALCON 9 R/B","ROCKET BODY","U","15010C","2016-01-09 14:57:28","658304","1.16234305","0.8230803","25.8203","357.348","259.6226","10.3571","0","999","365","0.00099105","-1.2e-06","0","1978726","0 FALCON 9 R/B","1 40426U 15010C   16009.62324836 -.00000120 +00000-0 +99105-3 0  9994","2 40426 025.8203 357.3480 8230803 259.6226 010.3571 01.16234305003650","2015-010C","40426","38210.169","1238.876","63282.071","381.996"
"GENERATED VIA SPACETRACK.ORG API","JSPOC","7363","METEOR 1-18","PAYLOAD","U","74052A","2016-01-09 14:57:45","70848","13.99789308","0.0016592","81.2262","65.0171","301.2398","58.7141","0","999","11883","5.19e-05","8.8e-07","0","1978726","0 METEOR 1-18","1  7363U 74052A   16009.62343832 +.00000088 +00000-0 +51900-4 0  9999","2  7363 081.2262 065.0171 0016592 301.2398 058.7141 13.99789308118835","1974-052A","7363","7272.661","102.872","906.593","882.460"
"GENERATED VIA SPACETRACK.ORG API","JSPOC","1580","OPS 8068","PAYLOAD","U","65072A","2016-01-09 14:57:49","67712","14.27351756","0.0236097","98.6262","244.9561","114.9018","247.6901","0","999","58910","3.7116e-05","7.4e-07","0","1978726","0 OPS 8068","1  1580U 65072A   16009.62348458 +.00000074 +00000-0 +37116-4 0  9993","2  1580 098.6262 244.9561 0236097 114.9018 247.6901 14.27351756589104","1965-072A","1580","7178.733","100.886","970.086","631.110"
"GENERATED VIA SPACETRACK.ORG API","JSPOC","15714","SL-12 R/B(AUX MOTOR)","ROCKET BODY","U","85037G","2016-01-09 14:58:04","256832","4.70294875","0.555378","51.8205","163.0938","96.7926","326.0734","0","999","49666","0.00093793","3.777e-05","0","1978209","0 SL-12 R/B(AUX MOTOR)","1 15714U 85037G   16009.62366038  .00003777  00000-0  93793-3 0  9999","2 15714  51.8205 163.0938 5553780  96.7926 326.0734  4.70294875496665","1985-037G","15714","15048.331","306.190","17027.708","312.684"
"GENERATED VIA SPACETRACK.ORG API","JSPOC","1814","FR 1","PAYLOAD","U","65101A","2016-01-09 14:58:06","80736","14.66175252","0.0004962","75.8673","45.4454","147.8977","212.2505","0","999","49697","5.485e-05","2.86e-06","0","1978726","0 FR 1","1  1814U 65101A   16009.62368149 +.00000286 +00000-0 +54850-4 0  9994","2  1814 075.8673 045.4454 0004962 147.8977 212.2505 14.66175252496973","1965-101A","1814","7051.441","98.214","676.805","669.807"
"GENERATED VIA SPACETRACK.ORG API","JSPOC","16727","COSMOS 1745","PAYLOAD","U","86037A","2016-01-09 14:58:56","807904","13.74153187","0.0031931","82.9567","39.1923","29.2175","85.1553","0","999","48565","4.2606e-05","5.5e-07","0","1978726","0 COSMOS 1745","1 16727U 86037A   16009.62426861 +.00000055 +00000-0 +42606-4 0  9990","2 16727 082.9567 039.1923 0031931 029.2175 085.1553 13.74153187485657","1986-037A","16727","7362.835","104.791","1008.210","961.189"
"GENERATED VIA SPACETRACK.ORG API","JSPOC","1291","SOLRAD 7B","PAYLOAD","U","65016D","2016-01-09 14:59:23","260128","13.94515877","0.0018178","70.0793","55.5501","81.3373","87.9055","0","999","58532","3.4951e-05","-5e-08","0","1978726","0 SOLRAD 7B","1  1291U 65016D   16009.62457477 -.00000005 +00000-0 +34951-4 0  9991","2  1291 070.0793 055.5501 0018178 081.3373 087.9055 13.94515877585329","1965-016D","1291","7290.984","103.261","926.103","899.596"
"GENERATED VIA SPACETRACK.ORG API","JSPOC","21667","SL-8 R/B","ROCKET BODY","U","91059B","2016-01-09 14:59:41","321184","13.75069581","0.001936","82.9049","39.7715","276.8956","216.1876","0","999","22333","0.0001126","1.23e-06","0","1978726","0 SL-8 R/B","1 21667U 91059B   16009.62478381 +.00000123 +00000-0 +11260-3 0  9990","2 21667 082.9049 039.7715 0019360 276.8956 216.1876 13.75069581223339","1991-059B","21667","7359.563","104.721","995.676","967.180"
"GENERATED VIA SPACETRACK.ORG API","JSPOC","15334","SL-12 R/B(2)","ROCKET BODY","U","84106B","2016-01-09 14:59:49","440192","14.14923393","0.0003368","71.0022","64.9256","350.7518","9.3541","0","999","49494","0.00010706","1.59e-06","0","1978265","0 SL-12 R/B(2)","1 15334U 84106B   16009.62487778  .00000159  00000-0  10706-3 0  9992","2 15334  71.0022  64.9256 0003368 350.7518   9.3541 14.14923393494942","1984-106B","15334","7220.709","101.772","845.006","840.142"
